IRIDIUM 166             
1 43570U 18061B   25353.43178788  .00000201  00000+0  64588-4 0  9996
2 43570  86.3979 131.9094 0002145  91.9912 268.1529 14.34218483387631
IRIDIUM 158             
1 43571U 18061C   25353.81868701  .00000241  00000+0  78856-4 0  9997
2 43571  86.3980 131.7578 0001909 100.5503 259.5908 14.34217171387659
IRIDIUM 165             
1 43572U 18061D   25353.63475182  .00000223  00000+0  72393-4 0  9995
2 43572  86.3980 131.8774 0002075  91.2329 268.9105 14.34218057387653
IRIDIUM 155             
1 43573U 18061E   25353.66646394  .00000218  00000+0  70751-4 0  9994
2 43573  86.3980 131.7424 0002117  99.1873 260.9563 14.34218665387625
IRIDIUM 154             
1 43574U 18061F   25353.43813126  .00000206  00000+0  66341-4 0  9996
2 43574  86.3981 131.9622 0002044  92.6248 267.5182 14.34218161387645
IRIDIUM 163             
1 43575U 18061G   25353.83771421  .00000171  00000+0  54061-4 0  9999
2 43575  86.3980 131.7164 0001881  96.7387 263.4023 14.34217758387674
IRIDIUM 156             
1 43576U 18061H   25353.81234480  .00000221  00000+0  71727-4 0  9991
2 43576  86.3979 131.7341 0002179  99.3341 260.8101 14.34217258387662
IRIDIUM 164             
1 43577U 18061J   25353.79332791  .00000186  00000+0  59236-4 0  9994
2 43577  86.3981 131.7794 0002077  89.6224 270.5209 14.34217485387701
